ONEWEB-0271             
1 48989U 21060Y   25333.83082938  .00000011  00000+0 -38439-5 0  9998
2 48989  87.9041 268.4685 0002088  76.7638 283.3725 13.16594383213439
ONEWEB-0272             
1 48990U 21060Z   25333.54900669 -.00000706  00000+0 -18803-2 0  9990
2 48990  87.9028 268.5416 0002074  81.7368 278.3998 13.16588191213346
ONEWEB-0273             
1 48991U 21060AA  25333.79916280  .00000018  00000+0  13837-4 0  9992
2 48991  87.9035 268.4861 0001957  73.6021 286.5325 13.16594619213351
ONEWEB-0274             
1 48992U 21060AB  25333.82448907  .00000112  00000+0  25869-3 0  9995
2 48992  87.9027 268.5049 0001960  85.6033 274.5322 13.16594376213390
ONEWEB-0275             
1 48993U 21060AC  25333.81340589  .00000080  00000+0  17524-3 0  9995
2 48993  87.9037 268.4768 0001936  77.8178 282.3169 13.16593573213322
ONEWEB-0276             
1 48994U 21060AD  25333.54266617  .00000036  00000+0  59627-4 0  9997
2 48994  87.9034 268.5302 0001907  70.6244 289.5093 13.16593706213309
ONEWEB-0277             
1 48995U 21060AE  25333.55531009 -.00000029  00000+0 -11021-3 0  9998
2 48995  87.9025 268.5529 0002032  80.7616 279.3744 13.16598174213298
ONEWEB-0278             
1 48996U 21060AF  25333.54583144 -.00000005  00000+0 -46274-4 0  9998
2 48996  87.9037 268.5256 0001679  71.8844 288.2469 13.16596306213422
ONEWEB-0279             
1 48997U 21060AG  25333.55376330 -.00000025  00000+0 -10005-3 0  9991
2 48997  87.9037 268.5218 0002131  80.2874 279.8498 13.16593144213359
ONEWEB-0280             
1 48998U 21060AH  25333.79676462 -.00000254  00000+0 -69779-3 0  9993
2 48998  87.9035 268.4794 0001956  65.5127 294.6208 13.16593184213322
ONEWEB-0281             
1 48999U 21060AJ  25333.57433619  .00000116  00000+0  27027-3 0  9990
2 48999  87.9031 268.5194 0001790  80.8847 279.2486 13.16595463213362
ONEWEB-0282             
1 49000U 21060AK  25333.83241079  .00000083  00000+0  18390-3 0  9996
2 49000  87.9036 268.4790 0002009  74.6565 285.4788 13.16595250213373
ONEWEB-0283             
1 49001U 21060AL  25333.82132527  .00000134  00000+0  31558-3 0  9991
2 49001  87.9035 268.4817 0002003  78.0196 282.1159 13.16595751213388
ONEWEB-0284             
1 49002U 21060AM  25333.81499691  .00000166  00000+0  40082-3 0  9996
2 49002  87.9038 268.4715 0001798  64.9090 295.2227 13.16594564213366
ONEWEB-0285             
1 49075U 21075A   25333.54764854  .00000246  00000+0  64912-3 0  9995
2 49075  87.8955  30.3192 0001787  97.8131 262.3201 13.12441738209022
ONEWEB-0286             
1 49076U 21075B   25333.68200429  .00000332  00000+0  88748-3 0  9993
2 49076  87.8948  30.3257 0001657 105.5601 254.5710 13.12443559208392
ONEWEB-0287             
1 49077U 21075C   25333.68235444 -.00000042  00000+0 -14147-3 0  9991
2 49077  87.9140  45.5372 0001386 112.8539 247.2739 13.17645330207355
ONEWEB-0288             
1 49078U 21075D   25333.65780802 -.00000406  00000+0 -11638-2 0  9997
2 49078  87.8956  30.2922 0001640  96.3038 263.8277 13.12443444209018
ONEWEB-0289             
1 49079U 21075E   25333.72100579 -.00000021  00000+0 -87751-4 0  9997
2 49079  87.9121  45.5460 0001697  87.4541 272.6785 13.17647352207932
ONEWEB-0290             
1 49080U 21075F   25333.23853069  .00000048  00000+0  89610-4 0  9997
2 49080  87.9134  45.6033 0001987  84.8138 275.3220 13.17649512207282
ONEWEB-0291             
1 49081U 21075G   25333.67895949  .00000034  00000+0  55651-4 0  9992
2 49081  87.9137  45.5219 0001364  97.9294 262.1992 13.17647922207337
ONEWEB-0293             
1 49082U 21075H   25333.62833367 -.00000051  00000+0 -16499-3 0  9991
2 49082  87.9123  45.5536 0001729  97.5318 262.6009 13.17647950207350
ONEWEB-0294             
1 49083U 21075J   25333.66429547 -.00000262  00000+0 -76382-3 0  9998
2 49083  87.8957  30.2917 0001659  83.5936 276.5381 13.12444050208407
ONEWEB-0295             
1 49084U 21075K   25333.62747994  .00000062  00000+0  12710-3 0  9995
2 49084  87.9127  45.5585 0001399 101.0161 259.1128 13.17647340207312
ONEWEB-0296             
1 49085U 21075L   25333.56859262 -.00000354  00000+0 -10184-2 0  9999
2 49085  87.8956  30.3159 0001327  91.3907 268.7373 13.12443453208392
ONEWEB-0297             
1 49086U 21075M   25333.67566190  .00000085  00000+0  20081-3 0  9994
2 49086  87.8946  30.3272 0001720 100.9743 259.1579 13.12442881209016
ONEWEB-0298             
1 49087U 21075N   25333.70778263  .00000067  00000+0  13888-3 0  9992
2 49087  87.9119  45.5393 0001802 102.8340 257.2993 13.17647775207355
ONEWEB-0299             
1 49088U 21075P   25333.63339946 -.00000015  00000+0 -71846-4 0  9990
2 49088  87.9130  45.5145 0001610 105.4711 254.6599 13.17648002207326
ONEWEB-0300             
1 49089U 21075Q   25333.66754492 -.00000171  00000+0 -51152-3 0  9991
2 49089  87.8956  30.2874 0002026 107.2663 252.8687 13.12443827209031
ONEWEB-0301             
1 49090U 21075R   25333.72755595 -.00000420  00000+0 -12020-2 0  9992
2 49090  87.8956  30.2783 0002096 108.0925 252.0432 13.12441769208402
ONEWEB-0302             
1 49091U 21075S   25333.71458043 -.00000228  00000+0 -66978-3 0  9998
2 49091  87.8958  30.2887 0001604  89.5198 270.6114 13.12441043208384
ONEWEB-0304             
1 49092U 21075T   25333.68402549 -.00000894  00000+0 -23365-2 0  9996
2 49092  87.9139  45.5356 0001639 100.8506 259.2810 13.17651693207301
ONEWEB-0305             
1 49093U 21075U   25333.67727052 -.00000070  00000+0 -21306-3 0  9995
2 49093  87.9138  45.5135 0001408 109.3529 250.7754 13.17649008207332
ONEWEB-0308             
1 49094U 21075V   25333.70808734  .00000070  00000+0  15815-3 0  9993
2 49094  87.8955  30.2828 0001807  99.6007 260.5325 13.12440764208397
ONEWEB-0309             
1 49095U 21075W   25333.68064742 -.00000024  00000+0 -95540-4 0  9999
2 49095  87.9138  45.5291 0001656  87.4032 272.7289 13.17647801207300
ONEWEB-0310             
1 49096U 21075X   25333.72268458 -.00000421  00000+0 -12060-2 0  9990
2 49096  87.8947  30.3177 0001731  95.6028 264.5298 13.12442069209027
ONEWEB-0311             
1 49097U 21075Y   25333.68738846 -.00000027  00000+0 -10358-3 0  9990
2 49097  87.9129  45.5230 0001518 112.3739 247.7554 13.17647072207356
ONEWEB-0312             
1 49098U 21075Z   25333.62664975  .00000013  00000+0 -90840-6 0  9997
2 49098  87.9124  45.5625 0001387  98.9399 261.1890 13.17648456207322
ONEWEB-0313             
1 49099U 21075AA  25333.63158885  .00000054  00000+0  10690-3 0  9993
2 49099  87.9122  45.5694 0001646 103.5741 256.5574 13.17650882207311
ONEWEB-0314             
1 49100U 21075AB  25333.74983264 -.00000008  00000+0 -53017-4 0  9997
2 49100  87.9135  45.4966 0001358 100.8600 259.2684 13.17647931207305
ONEWEB-0315             
1 49101U 21075AC  25333.54427182  .00000353  00000+0  94532-3 0  9995
2 49101  87.8953  30.3015 0001608 111.6060 248.5240 13.12442747208986
ONEWEB-0316             
1 49102U 21075AD  25333.60367304  .00000037  00000+0  62307-4 0  9997
2 49102  87.9194  15.1088 0001758  99.4554 260.6777 13.18684856210903
ONEWEB-0317             
1 49103U 21075AE  25333.61401562  .00000505  00000+0  13672-2 0  9993
2 49103  87.8956  30.3049 0002166  79.6251 280.5121 13.12443713209016
ONEWEB-0318             
1 49104U 21075AF  25333.67624801  .00000069  00000+0  14239-3 0  9999
2 49104  87.9194  15.0815 0001602 104.4160 255.7150 13.18684407210878
ONEWEB-0319             
1 49105U 21075AG  25333.23346621  .00000079  00000+0  17041-3 0  9998
2 49105  87.9125  45.6354 0001441 111.8559 248.2726 13.17648913207272
ONEWEB-0323             
1 49106U 21075AH  25333.68052392  .00000226  00000+0  59175-3 0  9995
2 49106  87.8955  30.2781 0001238 117.1439 242.9816 13.12443873208384
ONEWEB-0329             
1 49107U 21075AJ  25333.24191341  .00000069  00000+0  14369-3 0  9997
2 49107  87.9122  45.6349 0001610 101.7806 258.3506 13.17648503207257
ONEWEB-0330             
1 49108U 21075AK  25333.24274559  .00000085  00000+0  18471-3 0  9997
2 49108  87.9125  45.6403 0001574  95.2762 264.8549 13.17647929207293
ONEWEB-0292             
1 49186U 21083A   25333.80879708 -.00000083  00000+0 -26169-3 0  9994
2 49186  87.8978 359.8905 0001674  99.0293 261.1026 13.13470843204756
ONEWEB-0303             
1 49187U 21083B   25333.67295215  .00000064  00000+0  12836-3 0  9998
2 49187  87.9197  15.0834 0001649 101.9999 258.1318 13.18684504203688
ONEWEB-0306             
1 49188U 21083C   25333.81481016  .00000015  00000+0  57027-5 0  9990
2 49188  87.9195  15.0402 0001945  91.2783 268.8572 13.18684743203741
ONEWEB-0307             
1 49189U 21083D   25333.80286611 -.00000213  00000+0 -61735-3 0  9995
2 49189  87.8975 359.8836 0001768  94.7396 265.3935 13.13469224204755
ONEWEB-0320             
1 49190U 21083E   25333.67048398 -.00000009  00000+0 -55288-4 0  9990
2 49190  87.9191  15.0985 0001796  96.3660 263.7677 13.18683145203688
ONEWEB-0321             
1 49191U 21083F   25333.65754191  .00000126  00000+0  27904-3 0  9995
2 49191  87.9192 314.2262 0002083  80.5130 279.6239 13.20769930210496
ONEWEB-0322             
1 49192U 21083G   25333.79863951 -.00000244  00000+0 -70359-3 0  9991
2 49192  87.8981 359.8862 0002248  89.7517 270.3869 13.13469921204743
ONEWEB-0324             
1 49193U 21083H   25333.65645056  .00000001  00000+0 -31426-4 0  9994
2 49193  87.9195  15.0786 0001693  93.2471 266.8855 13.18683898203706
ONEWEB-0325             
1 49194U 21083J   25333.81151588  .00000048  00000+0  88458-4 0  9992
2 49194  87.9196  15.0666 0001867  96.8085 263.3260 13.18685402203736
ONEWEB-0326             
1 49195U 21083K   25333.67473921 -.00000026  00000+0 -98635-4 0  9991
2 49195  87.9195  15.0810 0001731 106.9405 253.1917 13.18683984203702
ONEWEB-0327             
1 49196U 21083L   25333.59858102  .00000002  00000+0 -28380-4 0  9994
2 49196  87.9187  15.1166 0001851 108.8415 251.2918 13.18684173203716
